{"type":"FeatureCollection","features":[{"type":"Feature","properties":{"nama":"bantarkawung","stroke":"#000000","stroke-width":1,"stroke-opacity":1,"fill":"#850f0f","fill-opacity":0.5},"geometry":{"coordinates":[[[108.96282654308737,-7.147715870718827],[108.96189729959673,-7.14551277251455],[108.96170192241209,-7.14448808441081],[108.96103205776603,-7.142964895147912],[108.96097623571222,-7.14185711795146],[108.96069712544573,-7.140804727128369],[108.95902246383031,-7.13944769328198],[108.95737571324469,-7.137509066518149],[108.95751526837972,-7.136096633274704],[108.9570686919485,-7.134905754799675],[108.95542194136505,-7.1329395910391185],[108.95444505542412,-7.131305582932754],[108.95388683488551,-7.129283836018487],[108.95249128354232,-7.127843682090926],[108.95173768581702,-7.127095908073727],[108.95101199911852,-7.127566728894138],[108.94981182496048,-7.12795446332359],[108.94704863329895,-7.1285914548888485],[108.94551352682379,-7.129089969408568],[108.94436917472166,-7.12950539776125],[108.94381095418441,-7.128979188451098],[108.94311317851208,-7.128536064353199],[108.94328064467328,-7.127843682091523],[108.94344811083579,-7.127123603430093],[108.94325273364711,-7.126542000607614],[108.94316900056583,-7.125738833591882],[108.94355975494324,-7.12490796968126],[108.94283406824343,-7.124021713181946],[108.94261078002688,-7.1223876732725415],[108.9405453640394,-7.122276890694948],[108.94009878760812,-7.1217783687633585],[108.93926145680223,-7.121916847132368],[108.93697275259802,-7.1215291075957055],[108.9364982651407,-7.12008892930217],[108.93619124384355,-7.118454875379058],[108.93496315866025,-7.118205612405248],[108.93437702709673,-7.117263951056017],[108.93423747196175,-7.11657155177258],[108.9340979168299,-7.115879151443508],[108.93367925142616,-7.115048269670325],[108.9337908955336,-7.114328170918043],[108.93404209477609,-7.113718855706892],[108.93485151455451,-7.112887970023536],[108.93529809098573,-7.112334045400161],[108.93741506958673,-7.110141874769553],[108.93772185424655,-7.108822696292222],[108.93695489259693,-7.108163105633622],[108.93649471560713,-7.10704687312996],[108.93536983851976,-7.106438017894831],[108.93490966153001,-7.1053217812008995],[108.93444948454021,-7.103901112398802],[108.93312008434629,-7.1029370846386115],[108.93219973036554,-7.1029878229921195],[108.93189294570573,-7.102023793318267],[108.93209746881223,-7.100958284484207],[108.93312008434629,-7.100044989234135],[108.9332223458996,-7.0992839084726995],[108.93225086114342,-7.098167654413388],[108.93015449929982,-7.098725781781567],[108.929387537649,-7.0981169155281805],[108.9285694452227,-7.098472087607291],[108.9276490912419,-7.098522826453333],[108.92637082182586,-7.098015437740926],[108.92545046784511,-7.098218393293067],[108.92447898308887,-7.098624304128634],[108.92473463697212,-7.099689818369399],[108.92483689852537,-7.101973054858391],[108.92463237541881,-7.104763661837978],[108.9236097598864,-7.108213843410454],[108.92228035969526,-7.109279335422613],[108.92084869794513,-7.109380810723664],[108.91957042852795,-7.109076384753337],[108.91788311289872,-7.108264581179654],[108.9161957972683,-7.1089749093850685],[108.91527544328756,-7.109685236492211],[108.91389491231814,-7.109989662060229],[108.91271890445421,-7.110192612325989],[108.91103158882379,-7.110446300032152],[108.91046915028073,-7.111613261675529],[108.90959992707775,-7.112120635379384],[108.90837278843713,-7.1123235847034465],[108.90770808834077,-7.112932432137541],[108.90642981892353,-7.1126787458047716],[108.9063786881469,-7.114099387463924],[108.90745243445758,-7.11374422746033],[108.90908861930603,-7.113997913204898],[108.9088329654229,-7.11562149864784],[108.90760582678342,-7.116889920778007],[108.9087307038696,-7.117955392659056],[108.90883296542728,-7.119883383102447],[108.90929314241708,-7.120847375287454],[108.90903748853384,-7.122065046729858],[108.90908861931047,-7.1232319788267375],[108.90965105785477,-7.124297435974611],[108.90949766552484,-7.126174663969309],[108.90949766552484,-7.127341585605123],[108.9088840962047,-7.128457768736254],[108.90847504999164,-7.129523213733123],[108.90878183465145,-7.130487185643759],[108.90883296542813,-7.131096008962231],[108.91036688872862,-7.131298949888517],[108.91128724270817,-7.131755566643818],[108.91159402736929,-7.132973209099887],[108.91210533513572,-7.1343937878720425],[108.91236098901896,-7.135763627511622],[108.91133837348485,-7.137945215510882],[108.91000897329218,-7.139923856095891],[108.90878183465145,-7.140583401056261],[108.90745243445878,-7.140380464245865],[108.90606145939745,-7.140299564321978],[108.90408484399353,-7.140093113180626],[108.90221226097873,-7.139473759196164],[108.9002356455756,-7.139576984918293],[108.89857112734018,-7.141538269213058],[108.89524209086926,-7.143705994699289],[108.890872730502,-7.144118893627564],[108.88941627704583,-7.1431898705160535],[108.88400659278221,-7.143293095399343],[108.88109368587112,-7.145667261282128],[108.8777646494002,-7.149899439438215],[108.87485174248911,-7.149589769195416],[108.86819366954859,-7.147731743329018],[108.86215979094578,-7.144015668930777],[108.85945494881281,-7.142983420679599],[108.86070333748967,-7.145047914849741],[108.86111946704824,-7.146596279358121],[108.86070333749262,-7.14835108612651],[108.86028720793405,-7.152067125262391],[108.86215979094874,-7.154441245544518],[108.86195172616948,-7.15815723510795],[108.86528076263914,-7.1611506491332335],[108.86788157238135,-7.162492518008648],[108.87297915947727,-7.163937603148767],[108.87610013116762,-7.164969804016721],[108.87911707046965,-7.162492518008648],[108.88026142675562,-7.158983006456097],[108.88265417171851,-7.1574346839510525],[108.88442272234369,-7.159911997435842],[108.8879598235938,-7.1632150611513055],[108.89128886006341,-7.16672454012631],[108.89274531351964,-7.170646866991859],[108.89451386414464,-7.172711235985432],[108.89482596131359,-7.1750852487557495],[108.89472192892396,-7.176736728597348],[108.89232918396107,-7.177459249144022],[108.89170498962318,-7.179420370555675],[108.89368160502636,-7.182000780582598],[108.89565822043073,-7.185716545292195],[108.89336950785747,-7.1861294061636585],[108.89180902201286,-7.185200468676925],[108.88847998554195,-7.185510114716408],[108.88723159686504,-7.183445803800623],[108.88423081771225,-7.18275196084133],[108.88345159752095,-7.184249848978723],[108.88350029878171,-7.185409500921182],[108.88354900004487,-7.187632158871594],[108.88374380509265,-7.1887434837687465],[108.88189315713578,-7.190531261594899],[108.87979900287422,-7.194009464656531],[108.87799705618272,-7.194879185202538],[108.87692562841721,-7.195748904080787],[108.87565939560619,-7.196135445269391],[108.87341913755358,-7.197488336837665],[108.87059446435978,-7.198454685487093],[108.8696204391182,-7.198696272328988],[108.86869511514197,-7.199227762925645],[108.86757498611792,-7.200967182343135],[108.86713667475914,-7.201305402010419],[108.86518862427829,-7.200870548106153],[108.86143862710594,-7.202513327334273],[108.86036719934128,-7.202513327334273],[108.85919836905413,-7.2031897641110305],[108.85686070847754,-7.2037212494409175],[108.85535096935939,-7.204204417381874],[108.85408473654604,-7.204832534936301],[108.85340291887854,-7.205364018339878],[108.85160097218318,-7.205315701692612],[108.85043214189608,-7.205847184529546],[108.84975032422858,-7.206088767431211],[108.84858149394148,-7.205798867933737],[108.84809448132182,-7.206185400555839],[108.84609772958021,-7.206233717110379],[108.84488019802995,-7.206378666743191],[108.83923087815651,-7.205508968250868],[108.83874386553691,-7.205170751719777],[108.8379646453431,-7.205508968250868],[108.83640620496033,-7.204639268089551],[108.83577308855365,-7.204059467053682],[108.83436075195783,-7.202948179664162],[108.83221789642914,-7.202754912013972],[108.82861400304165,-7.202609961222308],[108.82598413489166,-7.201885206566075],[108.82452309703274,-7.202803228932879],[108.82184452762363,-7.2042527341462375],[108.81940946452312,-7.20386619987589],[108.81789972540116,-7.203914516677756],[108.81595167492259,-7.20386619987589],[108.81278609289387,-7.203238080983539],[108.81069193862828,-7.203527982118942],[108.81181206765228,-7.205508968250996],[108.81395492318097,-7.208939435944302],[108.81376011813319,-7.210243973179573],[108.81429583201583,-7.211113662581383],[108.81580557113557,-7.21130692666722],[108.81687699890108,-7.210823766299697],[108.81712050520974,-7.212514825327617],[108.81965297083633,-7.214785666084779],[108.82043219102547,-7.2183610092890405],[108.82121141121684,-7.219810464702093],[108.82140621626468,-7.2218396944757615],[108.82091920364508,-7.2244003761921505],[108.82130881374076,-7.226574528526072],[108.81989647714266,-7.226381270964538],[108.81882504937948,-7.2278790149056675],[108.81848414054457,-7.2299565224735005],[108.81931206199914,-7.231889079073412],[108.82194193014749,-7.232565471928879],[108.82286725412365,-7.232082334278346],[108.8238972582576,-7.232648022354596],[108.82409543669309,-7.234122530941363],[108.8262753994859,-7.234810633301265],[108.82875262992968,-7.233237826367258],[108.83043714663376,-7.231468412016611],[108.83172530646448,-7.23284462377778],[108.83380618003957,-7.234712333028554],[108.8356888751768,-7.233631028614283],[108.83955335467135,-7.236678334416226],[108.84411145869018,-7.236580034550329],[108.84787684896702,-7.237857931136546],[108.84985863332196,-7.237661331897328],[108.85144406080832,-7.238939225421788],[108.85501127264956,-7.241101806214502],[108.85729032465787,-7.24031541439804],[108.85993592608037,-7.240895622155406],[108.86145703410682,-7.2424432877021445],[108.86215908396468,-7.242714128626446],[108.86297814213322,-7.243294501487753],[108.8637581975309,-7.242946277860611],[108.86469426400993,-7.242830203258478],[108.86430423631117,-7.243758799238833],[108.86383620307066,-7.244996924237839],[108.86290013659345,-7.246312428322241],[108.86141803133785,-7.2464285020276265],[108.8602089454705,-7.24615766333531],[108.85889624282464,-7.246314962030667],[108.85816305951909,-7.246365705777961],[108.85780499325426,-7.246906972063712],[108.85717411459677,-7.2469577157451255],[108.85731052079302,-7.247769613864023],[108.85720821614507,-7.24819247688734],[108.85700360685058,-7.249376491242785],[108.85714001304683,-7.25005306947736],[108.85656028671173,-7.250459015929792],[108.85577595108379,-7.2502729571840945],[108.8556920107792,-7.251138349747819],[108.85458543156608,-7.251376986377437],[108.85415242230818,-7.252713349167109],[108.8533826280738,-7.251997441022553],[108.85280528239792,-7.2525701676295],[108.85261283383937,-7.25376334571817],[108.85333451593527,-7.253429256172126],[108.85434487086673,-7.254145162038554],[108.85367130091169,-7.2548133398210695],[108.8545500032148,-7.256143358313679],[108.85631485640039,-7.260452798395207],[108.85807970958763,-7.261799489953134],[108.86011607864947,-7.262338165447417],[108.86201668977247,-7.263415514498135],[108.86255972152344,-7.266243543472314],[108.86310275327281,-7.268802221017694],[108.86513912233477,-7.271360883988365],[108.86785428108345,-7.272303545618641],[108.87151974539353,-7.270956885541295],[108.87409914620491,-7.272842208518341],[108.8779003684524,-7.273111539725761],[108.88047976926367,-7.272438211404122],[108.8829234121377,-7.272303545618641],[108.88453753793175,-7.274006005041073],[108.88453753793175,-7.2750656889515],[108.8867928024568,-7.2756544011539575],[108.88768303845495,-7.274535847309039],[108.8895228595162,-7.274947946418337],[108.89148137870905,-7.2756544011539575],[108.8930838035069,-7.275536658775266],[108.89355859603847,-7.277891500480749],[108.89284640724105,-7.279775364946005],[108.8920155203109,-7.282130184399676],[108.89492362456707,-7.284484991483751],[108.89717888909684,-7.285485780750051],[108.90038373868646,-7.286427698016723],[108.90163006908324,-7.287016395304292],[108.9028170504123,-7.286898655907535],[108.90530971120347,-7.287428482944449],[108.90709018319842,-7.287369613304747],[108.90934544772483,-7.287958309353357],[108.9104730799873,-7.288959090860587],[108.91355923144403,-7.291254992929467],[108.9136983124589,-7.29370701673885],[108.91255338230741,-7.295508413264145],[108.91279026440753,-7.296448269442038],[108.91334298930781,-7.297348963094365],[108.91314558755863,-7.2982888154061385],[108.91334298930781,-7.300442636174822],[108.91397467490992,-7.302557286473345],[108.91488272296067,-7.3034188077999005],[108.91650141731236,-7.303144687557392],[108.9171725832636,-7.303810407854712],[108.9185305338018,-7.3040131900500995],[108.9200901566536,-7.306665125017133],[108.92020155828584,-7.309427540538223],[108.92231818929855,-7.312189938976516],[108.92398921378248,-7.3142893503592745],[108.92566023826527,-7.313957865006785],[108.92710845948488,-7.315283804935888],[108.9285566807045,-7.317604190331608],[108.93278994272998,-7.318598637520935],[108.93590918843228,-7.317825178787416],[108.93991964719339,-7.314952320323201],[108.94303889289574,-7.317604190331608],[108.94415290921876,-7.316609740925699],[108.94727215492111,-7.316167762699294],[108.95028755169733,-7.315130706439874],[108.95098836800122,-7.315663625278162],[108.95145557887116,-7.316567268810019],[108.95168918430016,-7.318444061065094],[108.95075476256022,-7.320390355806879],[108.95019410952273,-7.32110862910686],[108.94972689865051,-7.322081771725905],[108.94925968778011,-7.323773181222222],[108.94928304832519,-7.3243987694108625],[108.94963345647608,-7.324491449067693],[108.95066132038966,-7.324584128705325],[108.9517592659347,-7.324329259654945],[108.95180598702274,-7.324769487922737],[108.95182934756576,-7.325348734980892],[108.95224983734983,-7.325673113004356],[108.95246008224075,-7.325927981285105],[108.95253016387181,-7.3263218683428875],[108.95224983734983,-7.326669415457744],[108.95210967408775,-7.3277352249178875],[108.95239000060911,-7.328546165192549],[108.95224983734926,-7.328777862142175],[108.95080148365122,-7.328986389294371],[108.95010066734517,-7.3292644253446895],[108.95124533397825,-7.330237550154095],[108.95150229995505,-7.330978977154331],[108.95316089854634,-7.331720402919132],[108.95425884409127,-7.331210672838495],[108.95531006854821,-7.33060826380796],[108.95736579637833,-7.330793620520296],[108.959210776801,-7.331465537951161],[108.96210748419492,-7.333458114718411],[108.9622009263689,-7.334037350477971],[108.96245789234797,-7.333573961931052],[108.96320745054504,-7.333084244455293],[108.96388475038185,-7.332796347291321],[108.96467262978518,-7.3324536123281945],[108.96517023782854,-7.332193133578855],[108.96594429478523,-7.332097167685703],[108.96663481832081,-7.331896175402761],[108.96710376360085,-7.331969133947865],[108.96757270888259,-7.332188009512137],[108.9686301345181,-7.332698718741824],[108.96913585982094,-7.333045271100161],[108.96937492996358,-7.333437422127432],[108.96973353517842,-7.333437422127432],[108.96998180032813,-7.333373583611447],[108.97013811541956,-7.33279388123573],[108.97030016953846,-7.332927693034819],[108.9710947515037,-7.332012499022184],[108.97154439072597,-7.33217832191724],[108.97212235522812,-7.33233118540646],[108.97478099194507,-7.333439444134726],[108.97466539903598,-7.330573252107797],[108.9760910448112,-7.329847147199416],[108.97628369964792,-7.328165636555241],[108.97790200025594,-7.326522335927564],[108.97890380539462,-7.326560552290033],[108.97898086732835,-7.325414059990052],[108.97986707956738,-7.324687946673677],[108.98065906019349,-7.324599932919924],[108.98106960658879,-7.323765180201335],[108.9829991746368,-7.3210980329970425],[108.98377921278245,-7.315906212161764],[108.9842513411349,-7.312444964713137],[108.98455925093015,-7.312221000718125],[108.98427530019251,-7.31194954749715],[108.98443175339207,-7.310139100700312],[108.98516697881377,-7.305880284464521],[108.97857176966744,-7.304790006084971],[108.9774725681437,-7.303699725045931],[108.97751484512207,-7.30235783704255],[108.9782335538116,-7.301225615904599],[108.97886770853586,-7.300764339804729],[108.98000918704224,-7.3010159450091265],[108.98043195685909,-7.300177260444002],[108.98022057195169,-7.299590180312592],[108.9789945394819,-7.299212771248818],[108.97789533795816,-7.29975791757164],[108.97781078399481,-7.299254705604852],[108.97806444588491,-7.298499886594797],[108.9789945394819,-7.297661197310944],[108.97882543155521,-7.296822506455911],[108.9782335538116,-7.296990244752706],[108.97709207530528,-7.298080542149847],[108.97603515076219,-7.296990244752706],[108.97603515076219,-7.296487029673699],[108.97645792057898,-7.295438663107291],[108.97798133255822,-7.294210775307917],[108.97878471025109,-7.293106014288881],[108.97882122741811,-7.292001250542839],[108.97869341733042,-7.291747697823311],[108.97809088406251,-7.2922004704363985],[108.97717795486716,-7.292254803118752],[108.9769588518605,-7.291657143245374],[108.97768919521604,-7.290860262173965],[108.97783526388724,-7.2898279368580745],[108.97745183362593,-7.288922386377493],[108.97661193876172,-7.287920544366045],[108.97621024991702,-7.2870512122375],[108.97617373275176,-7.285873988959196],[108.97597288832861,-7.285529876954854],[108.97480433895964,-7.2855660992835],[108.97451220161724,-7.28520387586687],[108.97529732072496,-7.283338420626066],[108.97504170054958,-7.28321164183329],[108.97458523595282,-7.283229753091263],[108.97356275525499,-7.283175419314389],[108.97334365224833,-7.282632081179443],[108.97407399560393,-7.280331942448086],[108.9738731511793,-7.280060271739785],[108.97356275525192,-7.279987826189853],[108.97286892906004,-7.280168940043609],[108.97243072304667,-7.280241385564196],[108.97171863827458,-7.280168940043609],[108.97129869084472,-7.279589375456183],[108.97142650093235,-7.279209035788838],[108.97206555136893,-7.278864918669811],[108.97317932498572,-7.278991698691499],[108.9734166865776,-7.278756250050975],[108.97248549879879,-7.277941234569923],[108.97202903420032,-7.277162440614944],[108.97167076963518,-7.277764394060824],[108.97074302588771,-7.2775343267189925],[108.97013999245075,-7.276337974638551],[108.96958334620223,-7.27550972902273],[108.97069663869928,-7.275601756388909],[108.97106773620044,-7.2748195231741875],[108.97060386432446,-7.273991274756128],[108.97004721807599,-7.274865536930378],[108.9693977974527,-7.274727495647653],[108.96972250776321,-7.273347080482893],[108.96675372776895,-7.271736590761023],[108.967495922767,-7.269481895446162],[108.96675372776895,-7.269159795191641],[108.96336746308941,-7.269343852508186],[108.96318191433988,-7.2662148678691665],[108.96197584746596,-7.26566269184643],[108.96169752434497,-7.263177891353081],[108.96086255497221,-7.263453980975072],[108.95970287528667,-7.262763756602197],[108.95928539059918,-7.2608771379086505],[108.96053784465948,-7.258254264624156],[108.96090894215843,-7.257149892350071],[108.96021313434892,-7.255953485993146],[108.9575537874577,-7.25517426749721],[108.9585963816703,-7.2537378120554195],[108.95871222547169,-7.252703561297551],[108.9567428808466,-7.2517842252970155],[108.95790131886378,-7.250175382779787],[108.95755378745969,-7.249256041616434],[108.95656911514646,-7.2480494034937095],[108.95378886391165,-7.24741735366338],[108.95268834779841,-7.2454062801211165],[108.95384678581235,-7.245233901971346],[108.95674288084854,-7.246498006871263],[108.9591756006792,-7.246498006871263],[108.95975481968753,-7.2448891454741755],[108.95871222547362,-7.242935520340964],[108.95824885026565,-7.241096806596701],[108.95384678581127,-7.23977522646463],[108.95315172300252,-7.237476817010105],[108.95048731556909,-7.238223801366928],[108.94846004904326,-7.240637126990038],[108.94654862631887,-7.239545386046345],[108.94266785896951,-7.238338721928315],[108.93942423252912,-7.236212686819087],[108.93971384203257,-7.23259265804505],[108.93536969948013,-7.226501750482015],[108.93293697965112,-7.220927923501037],[108.93143101023162,-7.220640610968317],[108.92882452469883,-7.220755536002798],[108.92633388296753,-7.219778672279006],[108.9268551800738,-7.217307772264817],[108.92529128875509,-7.214664468938025],[108.92604427346157,-7.213515201807013],[108.93253152634372,-7.209952455157719],[108.93212607303889,-7.208688247997131],[108.92859283709356,-7.208113607212283],[108.92841907139149,-7.206389680483042],[108.93791339188351,-7.198574463733053],[108.94098325262092,-7.193862282679589],[108.94283675344457,-7.1910464438208095],[108.9449086961601,-7.190308349687484],[108.94609459871276,-7.1894054295321865],[108.94969039669996,-7.187662097772957],[108.95207178039001,-7.187739417741852],[108.95467467412072,-7.188695814380779],[108.95581831015599,-7.187731547447832],[108.95784798635674,-7.187316703466934],[108.9583309832004,-7.188459143605542],[108.95900780133036,-7.189601584893936],[108.96102596770987,-7.18996349264053],[108.96202680457407,-7.188791651436652],[108.96291688641656,-7.189158189939903],[108.96468118488514,-7.189423486154439],[108.96705463596697,-7.189578898087973],[108.96698105868126,-7.19107564222152],[108.96721500824731,-7.191760866660829],[108.9676135808772,-7.192257234160877],[108.96813516425007,-7.192204408863049],[108.96991639543393,-7.192525908233321],[108.9720645002061,-7.1912063835173115],[108.97295403648198,-7.190424577622103],[108.97346030999005,-7.19055235881007],[108.97384357275786,-7.190130945022915],[108.9732120291514,-7.189706150231785],[108.97295403648178,-7.188725434593707],[108.97302430933807,-7.187266336969053],[108.97265877276962,-7.185992547174408],[108.9736086788468,-7.1843715081418225],[108.97249935506,-7.182114135522653],[108.97315024049777,-7.179924131784048],[108.97249935505988,-7.176274102121994],[108.97217422309745,-7.173989854229923],[108.97117496393003,-7.172040031034825],[108.97220504591996,-7.169557971056534],[108.97138583677582,-7.166809973285524],[108.97062477745948,-7.163897385535648],[108.96942882710397,-7.162710770376833],[108.96660203535629,-7.162063524441706],[108.96475374844397,-7.159690281489546],[108.9645623395968,-7.1569014118344825],[108.9645623395968,-7.15460504388156],[108.96528558814407,-7.153456855572401],[108.96492396387123,-7.15151928125313],[108.96571953727141,-7.150299322833803],[108.96470698930591,-7.150155798099675],[108.96282654308737,-7.147715870718827]]],"type":"Polygon"}},{"type":"Feature","properties":{"nama":"paguyangan","stroke":"#000000","stroke-width":1,"stroke-opacity":1,"fill":"#9d9001","fill-opacity":0.5},"geometry":{"coordinates":[[[109.0885395277088,-7.258120294077642],[109.08843254859687,-7.257429023469868],[109.08887363802745,-7.254770023328533],[109.08863612833375,-7.252851494484446],[109.08738071995583,-7.252043690419413],[109.08707535035154,-7.250831981604875],[109.08646461114267,-7.249754904368942],[109.08629496136018,-7.2485768481896145],[109.08015363929741,-7.247264153389352],[109.0757991199954,-7.247062200003882],[109.07379725258369,-7.245985113749285],[109.072541844206,-7.244605093226383],[109.07223647460148,-7.242248950861111],[109.07176145521402,-7.241811380209242],[109.07101499617909,-7.241676742999346],[109.0709082400403,-7.240987877221343],[109.06896510378374,-7.2395899686202085],[109.06728896335056,-7.239398675527639],[109.06528649468788,-7.23960468346975],[109.06521232917811,-7.240281566047571],[109.06464867133246,-7.241135025241121],[109.06424817760012,-7.241164454840359],[109.06343235703497,-7.241635328156406],[109.06186004830738,-7.241885479405198],[109.06073287122302,-7.241252743623903],[109.06000604926544,-7.241223314031771],[109.05901223148311,-7.241811905523122],[109.05699492972082,-7.241944338502478],[109.0552754807511,-7.241723616849072],[109.05402950025166,-7.241193884436328],[109.05184903437669,-7.239553881919747],[109.05134470893739,-7.23872984949098],[109.04922357546644,-7.237346648815091],[109.04742877022176,-7.2359340139582],[109.04860058521552,-7.231855419493073],[109.04824459078714,-7.23109023352086],[109.04812592597762,-7.230442767454619],[109.04818525838141,-7.2283090658919065],[109.04864027867904,-7.228333380948072],[109.04867379819547,-7.2278345837907665],[109.04843916157586,-7.226803734588074],[109.04991402033255,-7.22687024105997],[109.05138887909067,-7.2274022924763415],[109.05195871088216,-7.2263049357428315],[109.04977994226374,-7.225739629719271],[109.04988050081658,-7.225174322987769],[109.04957882516106,-7.224342988275794],[109.04910955192037,-7.223877440168351],[109.0489754738515,-7.223411891582259],[109.04843916157643,-7.222813328409941],[109.04817100543886,-7.2222147644442884],[109.04703134185263,-7.2226470607206466],[109.04662910764631,-7.223278877612387],[109.04569056116367,-7.223844186713862],[109.04548944406054,-7.223212370612842],[109.04475201468239,-7.223079356584321],[109.04203693378719,-7.2249415494225815],[109.04186933620196,-7.225473603109748],[109.04026039937497,-7.226371442287302],[109.0393888919279,-7.226238429188513],[109.03851738447923,-7.226504455346955],[109.03737772089465,-7.226005656171395],[109.03677436958509,-7.226703974863085],[109.03617101827399,-7.226604215116083],[109.03590286213642,-7.22703650719491],[109.03509839372379,-7.22703650719491],[109.03415984724234,-7.226371442287302],[109.03255091041535,-7.226703974863085],[109.03147828586515,-7.226770481348879],[109.03275713917475,-7.227359735381256],[109.03617867987725,-7.228087096750571],[109.03709516399505,-7.227965869936952],[109.03795054917032,-7.228390163642089],[109.03837824175798,-7.227965869936952],[109.0390808795812,-7.228420470320785],[109.03975296793323,-7.227965869936952],[109.04097494675642,-7.227905256518028],[109.04158593616734,-7.226602066042361],[109.04271626657822,-7.226208077485126],[109.04286901393027,-7.225601940569959],[109.04344945387129,-7.225147337351842],[109.04473253163883,-7.226567305830699],[109.04552681787294,-7.2283250968863655],[109.04561846628394,-7.230143494229097],[109.04638220304821,-7.230598092419868],[109.0469320935195,-7.2301738007887195],[109.0469320935195,-7.232083109990114],[109.04671824722493,-7.233537816344352],[109.04616835675392,-7.234627412242617],[109.04662659881137,-7.23496078098421],[109.04717648928266,-7.235930579557646],[109.04742088504696,-7.237627722047449],[109.04697570219201,-7.238815037259869],[109.04343275459604,-7.239616636821125],[109.04069784767955,-7.238938360361985],[109.03740352798343,-7.239616636821125],[109.03665764427939,-7.240788202849487],[109.03709274310671,-7.242453054600645],[109.0371549000821,-7.244117900202653],[109.03522803384652,-7.2448578296091455],[109.03504156291893,-7.245844400259529],[109.03441999316556,-7.247324252185251],[109.03468831314831,-7.24998710038831],[109.03656325422924,-7.250202746823831],[109.03765017659475,-7.250741862460842],[109.03868275284316,-7.250607083612721],[109.03933490626241,-7.251227065982349],[109.03970784811213,-7.250733786821883],[109.04144824342325,-7.252768559879129],[109.04157255737391,-7.254618345588781],[109.03958353416135,-7.258132917491636],[109.03945922021074,-7.258996141477951],[109.03927274928606,-7.261339169661255],[109.03908627836,-7.264175450602778],[109.03952137718733,-7.265100320953323],[109.03796745280385,-7.266333478461448],[109.03793367862801,-7.267631542462382],[109.03600216348019,-7.268679352401719],[109.03612288317692,-7.269367911889489],[109.03645486234342,-7.269667285250279],[109.03705846082687,-7.270625278665193],[109.03778277900699,-7.271134211834266],[109.03573054416245,-7.275355341187293],[109.03452334719418,-7.27613370112978],[109.03271255174246,-7.276253448693453],[109.02809502334327,-7.275924142815853],[109.02764232447998,-7.275445152018094],[109.02728016538987,-7.274756601849987],[109.02341713509566,-7.273169938746463],[109.02332659532243,-7.272750819254654],[109.02233065782315,-7.272690945009643],[109.02124418055297,-7.27236163651834],[109.01913158586149,-7.2698169718565],[109.01686809154802,-7.26918828777724],[109.01638521275743,-7.269517598595527],[109.01460459723069,-7.269128413057203],[109.01330686049255,-7.268020729296154],[109.01146588511739,-7.269098475694875],[109.01116408587,-7.270595341403634],[109.01077174685656,-7.271074337376049],[109.00965508966152,-7.271074337376049],[109.00823663322763,-7.273409435428022],[109.00739159534947,-7.273409435428022],[109.00693889648755,-7.273140001656955],[109.00672763701766,-7.273798617255977],[109.00702943625936,-7.2746667908847655],[109.00621457830465,-7.275325404243105],[109.00539972035273,-7.27634325935027],[109.0035889249042,-7.277361112152036],[109.0027740669509,-7.2783789626413835],[109.0027740669509,-7.279426747495279],[109.00377000444922,-7.280594276307966],[109.00479612187098,-7.281252880961773],[109.00527900065913,-7.283168816279257],[109.00488666164273,-7.284994934509257],[109.00488666164273,-7.285623596440303],[109.0052186408094,-7.287539513078116],[109.00485648171792,-7.288677084703295],[109.00265334725111,-7.2921496539003385],[109.00241190785772,-7.293287213817109],[109.00259298740275,-7.2943349638142365],[109.00440912776452,-7.299606940637929],[109.00578657277242,-7.3014964746115965],[109.00742778384955,-7.303124374401904],[109.00710540310075,-7.30428715633839],[109.00657787097032,-7.304694129301097],[109.00336871717565,-7.305566212973318],[109.0025334579679,-7.306322017446163],[109.00124393497703,-7.30938882632357],[109.00049659779177,-7.30922894581191],[108.99948549454098,-7.308138849890909],[108.99928034315622,-7.306816196601986],[108.99804943485043,-7.306627245811555],[108.99479632004426,-7.307281305897035],[108.99223192773928,-7.30796443429675],[108.99111824879901,-7.3080516421016455],[108.99069329235675,-7.307339444523308],[108.98770394361463,-7.307295840552769],[108.98691264541827,-7.306525503045151],[108.98584292748745,-7.306060392963445],[108.98505162929098,-7.306031323566529],[108.98484647790633,-7.30684526594483],[108.98430429210725,-7.3100719514983865],[108.98421637008477,-7.311932372214855],[108.98450944349065,-7.31238294169124],[108.98422660968214,-7.312612175340746],[108.98391201931463,-7.314234736929691],[108.98366034702343,-7.316793379760242],[108.98290717861863,-7.321348296898961],[108.98061193541633,-7.324838962928439],[108.97984685434932,-7.324940141246245],[108.97897976247333,-7.325648388827943],[108.97882674625993,-7.326660169136289],[108.97775563276497,-7.3268625249220065],[108.97639023554603,-7.327985588284733],[108.9760181014326,-7.329913078312927],[108.97481900261852,-7.330774294564961],[108.9749843955583,-7.33270177252372],[108.97477765438259,-7.333727023358236],[108.97572866378704,-7.33491631136701],[108.97610079790246,-7.3338910632724605],[108.97705180730497,-7.3332759132823355],[108.97746528965621,-7.3338910632724605],[108.97829225435493,-7.3350393409806145],[108.97895382611381,-7.334096113080292],[108.97958591689888,-7.335465603398234],[108.98088121361599,-7.333324439017105],[108.9837596507669,-7.333324439017105],[108.98433533819673,-7.335037371345493],[108.98692593163264,-7.33346718362948],[108.98922868135367,-7.334323650343322],[108.99354633707804,-7.33375267271694],[108.99671261794384,-7.334323650343322],[108.99872752394822,-7.33346718362948],[109.00074242995436,-7.333181694358956],[109.00246949224555,-7.334894627236608],[109.00534792939641,-7.334894627236608],[109.00822636654726,-7.33346718362948],[109.01225617855778,-7.334038161622047],[109.01455892827875,-7.33475188308195],[109.01772520914449,-7.335037371345493],[109.02233070858495,-7.333181694358956],[109.02477738016336,-7.33118326433916],[109.02578483316728,-7.326615390621242],[109.02799079345868,-7.326272547807207],[109.02937092855245,-7.3269569811925805],[109.03036769278549,-7.329466561275808],[109.03144113119032,-7.333344975410299],[109.03335798548648,-7.3369952166735715],[109.03443142389136,-7.340189153217153],[109.03581155898507,-7.341557976144259],[109.03657830070279,-7.343459112108363],[109.03573488481328,-7.34505606003593],[109.03335798548648,-7.346424867978911],[109.03228454708164,-7.347261359646808],[109.03044436695728,-7.348858293911832],[109.03136445701853,-7.350531266508767],[109.03427807554777,-7.3512917065148145],[109.03542818812622,-7.351595882153546],[109.03673164904637,-7.3506833546141195],[109.0393385708885,-7.34840202756493],[109.0384184808272,-7.347869716233745],[109.0402586609498,-7.347185315014883],[109.04102540266751,-7.345892554280184],[109.04278669049773,-7.34433411155706],[109.04411837034701,-7.3427331940519025],[109.04456226363084,-7.342212894621923],[109.04553075806592,-7.34177264078248],[109.04605535921928,-7.341172293934491],[109.04666066824035,-7.339611388338696],[109.04730633119897,-7.33877089844195],[109.04787128628618,-7.339291201898632],[109.04904155039628,-7.338971015228054],[109.05049429204905,-7.338971015228054],[109.05134172468075,-7.338971015228054],[109.05567752714262,-7.339755565788522],[109.05808895219656,-7.34016835759283],[109.05911138542342,-7.339371599737092],[109.06057200432065,-7.3400234926344154],[109.06276293266399,-7.339516464908613],[109.06495386100897,-7.338212676673493],[109.06641447990455,-7.335605088741659],[109.06677963463017,-7.333721821289728],[109.0683863154153,-7.332997485532459],[109.0691896558078,-7.331114207050078],[109.07072330564984,-7.327637364314498],[109.07043118187067,-7.326043802325117],[109.07123452226466,-7.323436143142118],[109.07357151249926,-7.320828468709024],[109.07400969816791,-7.318510523078089],[109.07517819328609,-7.316192565404521],[109.0757624408443,-7.314526525888553],[109.0762006265129,-7.313729722183439],[109.07736912162937,-7.313584848629716],[109.07766124540854,-7.311991236435091],[109.07868367863705,-7.310107869235409],[109.07985217375403,-7.308224494095583],[109.0808746069809,-7.307862305658347],[109.08233522587642,-7.306485986918659],[109.08401493760806,-7.304675034750488],[109.08518343272448,-7.3045301582592685],[109.08657102067696,-7.304312843435653],[109.09453139366741,-7.302646759611193],[109.10008174547386,-7.303226267732541],[109.10190751909334,-7.30329870619579],[109.10431754027263,-7.302429443872043],[109.10439057121744,-7.30090823073985],[109.1056320972786,-7.299676768699783],[109.10555906633391,-7.298372864020763],[109.10731180901024,-7.296199681111304],[109.10877242790576,-7.296344560300227],[109.1127160989272,-7.295185525474537],[109.11403065593316,-7.294461127184761],[109.11446884160176,-7.292432805735146],[109.11373853215406,-7.291998164229355],[109.1059242210577,-7.289680069071679],[109.1054130044443,-7.2883761352731256],[109.10585119011205,-7.287072197677688],[109.10716574711802,-7.286637550970042],[109.11052517058118,-7.285768256289188],[109.1168058318355,-7.285478491021124],[109.1198731315178,-7.283450128898423],[109.12089556474467,-7.283087920410793],[109.12410892631658,-7.282870595177798],[109.12688410222438,-7.282073735089185],[109.1273222878931,-7.28084222125608],[109.12673804033483,-7.2799729153374955],[109.12564257616322,-7.279755588594796],[109.12571560710796,-7.278524068396223],[109.12016525530152,-7.2791760500993945],[109.11753614128781,-7.278451625926351],[109.11636764617134,-7.277509872753626],[109.11702492467435,-7.2749019305731935],[109.12177193608665,-7.272801077240985],[109.124839235769,-7.272873520623008],[109.13024352568584,-7.276423232020321],[109.13090080419062,-7.276205903557994],[109.13090080419062,-7.2753365886554775],[109.13272657781056,-7.272945963993735],[109.13287263970011,-7.271569537958399],[109.135428722769,-7.267874899845211],[109.14251272441584,-7.268382008837051],[109.1438272814218,-7.26736779028181],[109.14645639543551,-7.266643347054668],[109.14842823094625,-7.266570902667837],[109.15120340684945,-7.2668606801452],[109.15507404692437,-7.26736779028181],[109.15799528471712,-7.267585123021902],[109.16135470817858,-7.269830888513951],[109.16412988408183,-7.271497094365984],[109.16573656486867,-7.270700214077593],[109.16712415281944,-7.2683095647296625],[109.16690505998508,-7.26736779028181],[109.16471413164004,-7.2647597891997435],[109.16398382219234,-7.263600672749689],[109.16186592479204,-7.261427321351292],[109.15901771794404,-7.256138789074029],[109.15565829448252,-7.253313383341094],[109.15492798503482,-7.252371577489697],[109.15273705668977,-7.250995088469907],[109.1510573449599,-7.249980830710101],[109.1463103335459,-7.2519368972005935],[109.14134268925937,-7.255272671168925],[109.13934625342853,-7.255593825288457],[109.13553805208062,-7.255914979177547],[109.13424306667639,-7.255433248256722],[109.13240850401968,-7.2548979910746425],[109.13138330724041,-7.256022030422926],[109.12906312505726,-7.256771388427808],[109.12766022420311,-7.257306643381511],[109.1258256615464,-7.258377151379875],[109.12534004201996,-7.2589124044231],[109.12431484524109,-7.259554707234329],[109.12377526798952,-7.260036433742101],[109.12426088751596,-7.260518159732584],[109.1247465070424,-7.261481610165546],[109.1244227606914,-7.262873257147788],[109.12377526798952,-7.264586047519586],[109.12215653623343,-7.265388915759104],[109.1182176222942,-7.26512129317193],[109.11595139783628,-7.265603013713985],[109.11355612808546,-7.26683407497687],[109.11134386135274,-7.26704817224325],[109.1097251295966,-7.267476366470078],[109.10859201736832,-7.2687609467030825],[109.10675745471161,-7.2696708554780685],[109.1063257929103,-7.269082091187073],[109.10513872295559,-7.268439801988279],[109.10384373755176,-7.267904560288784],[109.10260270987476,-7.267904560288784],[109.10206313262313,-7.267690463430455],[109.10146959764518,-7.267690463430455],[109.09968899271485,-7.268118657045093],[109.09834004958458,-7.26822570538495],[109.09747672598206,-7.26704817224325],[109.0961277828518,-7.266673501960085],[109.09585799422598,-7.265870636014313],[109.09531841697446,-7.265388915759104],[109.09467092427127,-7.265495964749292],[109.09262053071393,-7.2623915336802725],[109.09186512256173,-7.262605633062876],[109.09066022925703,-7.262561434662089],[109.08965878685927,-7.261626461342374],[109.08909915728333,-7.2603700878818245],[109.08865734446152,-7.25940589191525],[109.0885395277088,-7.258120294077642]]],"type":"Polygon"}},{"type":"Feature","properties":{"Nama":"Tonjong","stroke":"#000000","stroke-width":1,"stroke-opacity":1,"fill":"#ff7b00","fill-opacity":0.5},"geometry":{"coordinates":[[[109.00278515025462,-7.141365522419548],[109.0016281393805,-7.14189235195704],[108.99983347676914,-7.141706858368792],[108.99852486861533,-7.140334203476314],[108.99517666005829,-7.138034069826645],[108.9924472773368,-7.135733924614158],[108.99181166766164,-7.133545066015017],[108.99024133787822,-7.131986889110337],[108.98539792943245,-7.132691779319899],[108.98356587801754,-7.132023988622166],[108.98240682508128,-7.133285370232784],[108.97945310953355,-7.134324152479238],[108.97735933648897,-7.1359936190075075],[108.97500384181114,-7.138813148648836],[108.97350828963641,-7.141966549371389],[108.97298484637344,-7.144917893862953],[108.97227445908953,-7.147848663170436],[108.97130235017596,-7.14859062710255],[108.96924596593306,-7.149889061083229],[108.96775041375838,-7.150668119699375],[108.9669278600623,-7.1508165116661075],[108.96528275266832,-7.1505197276844825],[108.96517058625614,-7.1511874913727524],[108.96487147582121,-7.151781058275233],[108.96502103103865,-7.152671407183021],[108.96517058625614,-7.153598852114754],[108.96449758777572,-7.154785978878877],[108.96457236538447,-7.156640858265902],[108.96449758777584,-7.157735546010073],[108.96468453179858,-7.158811370019052],[108.96528275266843,-7.16088881609646],[108.966367027996,-7.162001729745711],[108.96778780256199,-7.162483991483072],[108.9692085771315,-7.162785687570462],[108.97070412930617,-7.163972790427579],[108.9708536845236,-7.165234083825922],[108.97089107332891,-7.166198599952011],[108.97152668300407,-7.167422790555676],[108.97197534865649,-7.169240522052249],[108.9717510158303,-7.16994535476195],[108.97141451659007,-7.171985653826141],[108.97197534865649,-7.173432405804931],[108.97264834713485,-7.1766524927755455],[108.97302223517852,-7.1801023968312165],[108.9725735695261,-7.181437836537796],[108.97261095833136,-7.182402318331455],[108.9735640751926,-7.184409523888192],[108.97320448079233,-7.185252800217043],[108.97277950559203,-7.185804172354821],[108.97315544519194,-7.18800965421724],[108.97300833839262,-7.188739406887834],[108.97315544519194,-7.189517808444691],[108.97379290799478,-7.190260208410521],[108.97336793279607,-7.190503458225223],[108.97297564799652,-7.190503458225223],[108.97281219599597,-7.190827791110067],[108.97255067279633,-7.190941307564415],[108.97173341279648,-7.191444022951671],[108.97070366519745,-7.191914304584316],[108.97049117759809,-7.192189986694416],[108.96969026279794,-7.1926116178325685],[108.96993544079805,-7.192806216687401],[108.97076904599743,-7.193260280358189],[108.97125940199754,-7.193665693965173],[108.97148823479654,-7.194217055890917],[108.97130843759629,-7.194411654057447],[108.97137381839622,-7.19470355115088],[108.97139016359733,-7.195157612922998],[108.97209137870232,-7.1954884051531],[108.97249076441665,-7.1959566889261595],[108.97294461182383,-7.195812601662794],[108.9732350741636,-7.195884645300168],[108.97305353520039,-7.196280885102169],[108.97337638375245,-7.19660265171467],[108.97356086863721,-7.1976093238960885],[108.97443717183882,-7.197929628212307],[108.97489838405289,-7.198158416871166],[108.97462165672579,-7.1989820550887345],[108.97517511138005,-7.199393873636154],[108.97586692969696,-7.1989820550887345],[108.97614052309791,-7.199360165541208],[108.97631005520816,-7.199771309932842],[108.97654237698822,-7.199870981244445],[108.97662400355875,-7.19973393318503],[108.97669935116352,-7.199534590479672],[108.97681865153646,-7.199515902097033],[108.97696934674497,-7.199621802924355],[108.97712004195012,-7.1999021285218845],[108.97747166410039,-7.200475238099855],[108.97764119620945,-7.200655892056062],[108.9776600331113,-7.200867693153626],[108.97798653940214,-7.201372277726676],[108.97798653940214,-7.201521784158061],[108.97809328184252,-7.201727355420601],[108.97871489957618,-7.2024312805554445],[108.97950604942088,-7.202555868960104],[108.97978232397037,-7.20238144518369],[108.97986395054085,-7.202506033602091],[108.98000208781565,-7.202368986340247],[108.98014650405719,-7.202487345341879],[108.98018776355337,-7.202779733890296],[108.9804843217193,-7.20326118105389],[108.98024168321996,-7.2038228687657835],[108.98029560288666,-7.204384555781658],[108.98064461290699,-7.205026482943879],[108.98044826026819,-7.205777530305824],[108.98102422799684,-7.2057905170947265],[108.98123367080723,-7.206076226335753],[108.98152165467212,-7.206232067664402],[108.98161328590078,-7.206517776628274],[108.98207144204889,-7.20708919401433],[108.98222852415796,-7.2073489289516175],[108.98220234380602,-7.207634637211228],[108.98230706521122,-7.20786839838064],[108.98211071257617,-7.208439814063254],[108.98220234381051,-7.208855374221983],[108.98203217152741,-7.20960860219374],[108.98238560627021,-7.210569615373387],[108.98292230347164,-7.2113618003791515],[108.98285685259361,-7.211972171488043],[108.98321028733659,-7.212024117927399],[108.9833019185665,-7.212296836637037],[108.98311865610668,-7.212543581994154],[108.98284628547623,-7.213213200818615],[108.98334748187347,-7.213800835580429],[108.98321079194449,-7.2147816505364375],[108.98412205811928,-7.216363736902466],[108.98498776098637,-7.216996569901227],[108.98539783076609,-7.2174485929290455],[108.98612684370596,-7.217358188359597],[108.9869469832633,-7.2174937952070195],[108.98722036311568,-7.218126626624027],[108.98731148973314,-7.219075872090798],[108.98840500914292,-7.220567539513127],[108.98890620554022,-7.221019558972429],[108.98886064223251,-7.222827632292223],[108.98899733215762,-7.224048077695684],[108.98890620554022,-7.226036944625008],[108.98931627531994,-7.228477814801465],[108.9897719084073,-7.22947223961161],[108.99013641487727,-7.230466662231279],[108.99050092134718,-7.231009073646376],[108.99013641487727,-7.231551484411028],[108.99018197818486,-7.232636303983412],[108.99036423141985,-7.233495117630682],[108.99016388440788,-7.234577387456312],[108.99028031854425,-7.234866155291002],[108.99075769849645,-7.235616950798203],[108.99028031854425,-7.236021224784537],[108.99021045806285,-7.236261980803675],[108.99010566734182,-7.236446791549511],[108.98930227181108,-7.2374170467242465],[108.9892673415693,-7.237948376053708],[108.98920912450325,-7.238110084856544],[108.9890577601272,-7.238248692355256],[108.98887146551158,-7.238248692355256],[108.98841737238575,-7.237913724160748],[108.98805642656771,-7.238352647951032],[108.98777698464426,-7.239172741258173],[108.9877304109915,-7.2398195743649865],[108.98776534123112,-7.240397103140339],[108.98798656608625,-7.24058191219207],[108.98810300022274,-7.240708968371507],[108.98873174455099,-7.240766721168072],[108.9890111864745,-7.240651215566359],[108.9896865044555,-7.240477957108965],[108.99008238051317,-7.2409053278503706],[108.99047825657306,-7.241043934490051],[108.99086248921753,-7.241043934490051],[108.9912467218619,-7.24095153006833],[108.9915378071986,-7.2407782717262705],[108.99203847397945,-7.240789822284228],[108.99228298566334,-7.240558811064204],[108.9930863811918,-7.239715619106192],[108.99340075335704,-7.239322899026931],[108.99366378272583,-7.239195842458514],[108.99438567436198,-7.2392766966436],[108.99483976748786,-7.239161190660326],[108.99532705003611,-7.23884932435891],[108.9956696683468,-7.238410401051837],[108.99605390099123,-7.238225591110378],[108.99663607166673,-7.238294894846774],[108.99733467647417,-7.238294894846774],[108.99775383936043,-7.238456603525407],[108.99802163787069,-7.2385836603035045],[108.99803328128394,-7.238860874967287],[108.9982681594895,-7.238655563343443],[108.9990689050739,-7.238496690625141],[109.00002979977711,-7.238059790360467],[109.00149620665991,-7.23489912080413],[109.00179910722596,-7.233459275966169],[109.00221559550528,-7.233321551436362],[109.00299028950315,-7.232845775465023],[109.00435334205184,-7.233459275966055],[109.00550184003203,-7.234072775632086],[109.00630957487618,-7.2345485503100235],[109.00643578344443,-7.234122857199949],[109.00672606315385,-7.23352187800883],[109.00720565571748,-7.232395039870596],[109.00729400171281,-7.232044467432274],[109.00744545199586,-7.231981865181552],[109.00815221998351,-7.231543649189433],[109.00863181254715,-7.231067871345886],[109.00887160882894,-7.231080391821578],[109.0096919645298,-7.2313182807999965],[109.00985603566892,-7.231092912295665],[109.01058804537104,-7.230742338846042],[109.01120646736206,-7.230091273144936],[109.0129733873323,-7.228388481492615],[109.01342773818129,-7.227887659198217],[109.01380636388421,-7.227086342365865],[109.01400829759484,-7.22625998289783],[109.0148160324402,-7.224503864402735],[109.01494224101003,-7.223063986428329],[109.01458885701385,-7.22198103170183],[109.01492962015101,-7.221542806010305],[109.01640626041177,-7.220278209490758],[109.0178576589592,-7.219414275181649],[109.0195109912163,-7.219364191982763],[109.0204070720564,-7.219597140162293],[109.01928381578949,-7.218420183997125],[109.01870325637049,-7.218244892390857],[109.01712564925435,-7.217969434016808],[109.01615384327044,-7.217593808689472],[109.01651984812207,-7.217155578747139],[109.0166208149775,-7.216241554929937],[109.01691109468698,-7.216041220696113],[109.01693633640025,-7.21551534291099],[109.01739068724947,-7.214726525085041],[109.01756258089296,-7.214743024235858],[109.01888506938712,-7.211950494781604],[109.01953503802451,-7.210369627465525],[109.01972373859525,-7.210151217730825],[109.02024790685044,-7.21020322005873],[109.02081400856281,-7.210681641188103],[109.02177847815051,-7.210900050667007],[109.02248086361158,-7.212012897325195],[109.02275343110296,-7.212158503228082],[109.02343484983243,-7.212231306161996],[109.02517239723971,-7.211430473245457],[109.026336050765,-7.211534477599571],[109.0265352347007,-7.211815289237876],[109.02709164003562,-7.2117825269190945],[109.02903491926452,-7.212369280376706],[109.03080921769305,-7.211363416841593],[109.03165412170563,-7.208513458027596],[109.03334392973085,-7.207507585929008],[109.03233004491574,-7.206585534543379],[109.03249902571821,-7.205328188722461],[109.03249902571821,-7.203651722200647],[109.03309045852706,-7.2024781919459],[109.03613211297443,-7.19744874217065],[109.03917376742169,-7.195436946647433],[109.04103255625142,-7.195185471580061],[109.04348277788796,-7.193760443565338],[109.0462709611399,-7.1910780257572355],[109.05032650040238,-7.189736810909849],[109.05412856846249,-7.189317680458089],[109.05705355413232,-7.189637390398872],[109.05713915071715,-7.188808009946285],[109.05563065780825,-7.186906028798148],[109.05546722123313,-7.185000995168423],[109.0564762068268,-7.18424393311075],[109.05953554525655,-7.179719142822876],[109.06429867322049,-7.171862093221236],[109.06781343647168,-7.1684621898938445],[109.07248304423541,-7.163577508199012],[109.07694656991089,-7.159180075741631],[109.08085456259971,-7.155722345335519],[109.08220127703504,-7.1528601641918215],[109.08328897869359,-7.1505366033343165],[109.0840882773661,-7.146769577794288],[109.0834592923473,-7.143845610805911],[109.08309637746112,-7.140855010363097],[109.08266758365181,-7.1371007620608395],[109.08229800697848,-7.134826319258451],[109.08048958456055,-7.1336320860349645],[109.07416328822859,-7.127210716542763],[109.07356724536089,-7.126212309314013],[109.07295669019186,-7.1247973618585405],[109.07322194566927,-7.122884429062751],[109.07385207060844,-7.113988472709593],[109.07305090754676,-7.115582104822735],[109.07213256950257,-7.117091938376049],[109.07155911342363,-7.118507432320243],[109.07051341650293,-7.120761315805964],[109.06971053712556,-7.122407774338683],[109.06965889504943,-7.124858015964989],[109.06970160909992,-7.125929676811694],[109.0688912681623,-7.127007056955037],[109.06755778275226,-7.127671195113265],[109.06637934610671,-7.127499677084174],[109.06328868184295,-7.127517375979224],[109.06122567351002,-7.128036701352528],[109.0597009506211,-7.129296032682191],[109.05890366513415,-7.13140441731143],[109.05807378318246,-7.1342609862673925],[109.0572314790902,-7.135010697042418],[109.05723527192254,-7.136758398336653],[109.05754037202132,-7.138465540522674],[109.06033725600014,-7.141337814206793],[109.0598744925303,-7.1441252084508875],[109.05894435020912,-7.147758556070642],[109.05683823625372,-7.1498246607962415],[109.0553420850789,-7.1501456444322],[109.05266101110692,-7.150633069443259],[109.04723237227842,-7.1504693425098935],[109.04593679916462,-7.149717635226196],[109.04455064267808,-7.147470410167358],[109.04313873830762,-7.1448107047428095],[109.04188593345708,-7.143564296883241],[109.03920229318015,-7.141417912221854],[109.03645405172915,-7.140296801562656],[109.03553110128428,-7.1404573652772],[109.03229107433043,-7.140872017233818],[109.02970639817556,-7.142282389733822],[109.02645946439463,-7.14293076727256],[109.02273642762208,-7.142928473229105],[109.0203561235445,-7.142597104948351],[109.01710357850078,-7.1418685052355215],[109.01388220504606,-7.14053900856338],[109.01101965389756,-7.139772520988984],[109.00864657314713,-7.13945325832627],[109.00566476658213,-7.139770760327181],[109.0045597975261,-7.1402358998455355],[109.00422495841838,-7.139903657381211],[109.00382315148914,-7.1406013662774654],[109.00322044109384,-7.1406013662774654],[109.00278515025462,-7.141365522419548]]],"type":"Polygon"}},{"type":"Feature","properties":{"nama":"Sirampog","stroke":"#000000","stroke-width":1,"stroke-opacity":1,"fill":"#3b0094","fill-opacity":0.5},"geometry":{"coordinates":[[[109.05739812968301,-7.189464048074129],[109.05571366096956,-7.189309305059382],[109.05440351863797,-7.189216459224056],[109.0525318867343,-7.189340253665961],[109.05090980575079,-7.189402150874244],[109.04978682660953,-7.189773533948397],[109.0476968376513,-7.190516299182704],[109.04654266464422,-7.190794835831653],[109.04573162415176,-7.1915685478516735],[109.04410954316575,-7.1930850195813605],[109.04348566586498,-7.193765882793556],[109.04220671739773,-7.194415796725991],[109.04123970758087,-7.195003813291606],[109.03955523886737,-7.195158554365548],[109.0361551075797,-7.197355871934178],[109.03525048549295,-7.199088959972343],[109.03281736401613,-7.203297860495525],[109.03256781309574,-7.20629977302346],[109.03369079223859,-7.207413879832146],[109.03185035420069,-7.20824945813969],[109.03097692597925,-7.211220390747457],[109.02925278619296,-7.21205134402166],[109.02734392105123,-7.211592249964184],[109.02688116586557,-7.211764410290328],[109.02624487748545,-7.211247929115629],[109.02531936711296,-7.21119054228204],[109.02387325715807,-7.21228089087586],[109.02288990238736,-7.211936570550918],[109.02184870321992,-7.210674060452774],[109.0210388816451,-7.210674060452774],[109.02022906006903,-7.210042804082391],[109.01941923849432,-7.211133155441203],[109.0181466617326,-7.213945102089255],[109.01776403600263,-7.214486846485471],[109.01754254689001,-7.214505157775392],[109.01717339836893,-7.2152925425598795],[109.01711802609054,-7.215786946256188],[109.01676733499505,-7.216153170870257],[109.01671196271644,-7.216958863978775],[109.01637972904831,-7.217380021168211],[109.0173948874816,-7.217837800277977],[109.01853924789788,-7.218020911792067],[109.01960977860819,-7.2182589566491515],[109.02044036278204,-7.219156201525976],[109.02152607608252,-7.219523150660692],[109.02317436068205,-7.220845238440845],[109.02503306459215,-7.221749822589189],[109.02661120942156,-7.2222716972369625],[109.03103001494492,-7.226029176911538],[109.03103001494992,-7.226481464027998],[109.03173141265154,-7.226585837912978],[109.03239774046881,-7.226725003055407],[109.0335550466773,-7.226620629202557],[109.03418630460209,-7.226411881423886],[109.03523840115446,-7.22717728947157],[109.03583458920161,-7.227072915723241],[109.03600993862784,-7.226759794333617],[109.03671133632946,-7.226759794333617],[109.03723738460644,-7.225994385577778],[109.037833572652,-7.226098759575251],[109.03853497035584,-7.226481464027259],[109.03930650782758,-7.226133550902404],[109.04007804530102,-7.226411881423886],[109.041831539555,-7.22557688934684],[109.04197181909535,-7.22502022710556],[109.04316419518966,-7.224185232457316],[109.04393573266145,-7.223698151533924],[109.04460206047821,-7.223106695420526],[109.04533852806406,-7.223106695420526],[109.04565415703064,-7.223767734555096],[109.04621527519191,-7.223628568502065],[109.04702188254953,-7.222793571282921],[109.04824932852819,-7.22220211398691],[109.0483545381826,-7.2227587796987365],[109.0489156563433,-7.223280653181007],[109.04905593588364,-7.223872109066818],[109.04958198416068,-7.224289606872603],[109.04975733358685,-7.224602729973867],[109.04975733358685,-7.2252289755264485],[109.04961705404656,-7.22557688934684],[109.05193166646183,-7.226342298809783],[109.05165110738113,-7.227072915723241],[109.05140561818644,-7.227386036895922],[109.04986254324132,-7.226898959422456],[109.04849481772231,-7.226829376883387],[109.04863509726266,-7.22780353145609],[109.04860002737843,-7.228360190268361],[109.04821425864174,-7.228255816793279],[109.04814411887435,-7.230447654705344],[109.04824932852875,-7.231073892155663],[109.04863509726545,-7.231908874070612],[109.04740765128633,-7.235944598222403],[109.0491962154262,-7.2373014284091965],[109.05137054830283,-7.238727835231458],[109.05179138692046,-7.239493222402089],[109.0540358595672,-7.24119794369679],[109.05526330554528,-7.241685005739939],[109.0570869395711,-7.241928536564188],[109.0589456434812,-7.2417893761092955],[109.06003280991939,-7.24119794369679],[109.06076927750689,-7.241232733860215],[109.0618915138295,-7.241893746454451],[109.06336444900228,-7.241615425480219],[109.06417105635995,-7.241163153530678],[109.06469710463705,-7.241093573190497],[109.06518808302815,-7.240258608269869],[109.06525822279826,-7.239597593278717],[109.06729227613175,-7.239423641803384],[109.06883535107693,-7.239562802989155],[109.07034335613616,-7.240502139864532],[109.07093954418343,-7.24095441247789],[109.07100968395355,-7.241580635346381],[109.07185136119546,-7.241858956342114],[109.07227219981644,-7.242311227593788],[109.0725708977892,-7.244505982668031],[109.07379877515189,-7.2460106607573636],[109.07589338947821,-7.247085427744452],[109.07986593388864,-7.247300380835085],[109.08441630294197,-7.248016890393657],[109.08643868918642,-7.248590097220074],[109.08643868918642,-7.2498081593050046],[109.08694428574921,-7.250739616323926],[109.08742828788826,-7.251994128965194],[109.08860116033497,-7.252795123695336],[109.08885349000798,-7.254864353482972],[109.0884497625284,-7.2576019402529255],[109.08851705044185,-7.259199832026326],[109.08873573616046,-7.259934065491564],[109.08984598673442,-7.26180301799468],[109.09045157795617,-7.262520560195668],[109.09163173609397,-7.262708190320552],[109.09260280559147,-7.262540663655628],[109.09467160582415,-7.265388608469721],[109.09522047119276,-7.265388608469721],[109.09602265903669,-7.265933066452618],[109.09610709986242,-7.26664504897326],[109.09737371225123,-7.267063861694737],[109.09838700215789,-7.268110891790201],[109.09952695330696,-7.2680690106333685],[109.10138465147423,-7.267566436445307],[109.10206017808048,-7.267692080044753],[109.10256682303515,-7.268027129472586],[109.10379121501006,-7.267901485966831],[109.10539559070185,-7.26840405977903],[109.10623999895972,-7.268990395182641],[109.10683108474018,-7.269702372859058],[109.10868878290808,-7.268697227576496],[109.10970207281952,-7.267566436445307],[109.11147533016089,-7.267105742946669],[109.11341746915468,-7.266812574110631],[109.11569737145271,-7.265639896852804],[109.11814615540248,-7.265179201378942],[109.12008829439543,-7.2653048456459715],[109.122199315042,-7.265346727060447],[109.12363480908027,-7.264550979517168],[109.12443699692625,-7.263043243465361],[109.12473253981545,-7.261577384122575],[109.12443699692625,-7.260781629906134],[109.12388813155764,-7.26032092945357],[109.124141454035,-7.259650818861971],[109.1251547439457,-7.259148235263083],[109.1257458297282,-7.258436240868903],[109.12663245839792,-7.257975538014065],[109.12751908706963,-7.257305423927406],[109.12920790358265,-7.256593426617783],[109.13129055112336,-7.255939380577843],[109.13224705534424,-7.254904276831013],[109.13329051449205,-7.255163052991676],[109.13555134264777,-7.255939380577843],[109.13981213417009,-7.255594346260452],[109.14129036796277,-7.2553355703487625],[109.14633375385091,-7.252143988536545],[109.15033368058624,-7.250332540145735],[109.1515510495941,-7.250246280516919],[109.15346405803177,-7.251281394973006],[109.15485533689758,-7.252316507050736],[109.1555509763295,-7.253351616748574],[109.15885526363297,-7.255939380577843],[109.15998567770981,-7.2580958390683605],[109.16189868614953,-7.261459893671756],[109.16259432558138,-7.261632408613977],[109.16511601852199,-7.2574057734763215],[109.16581165795594,-7.254731759308541],[109.16555079315935,-7.248434824490175],[109.16859421567591,-7.249469943109631],[109.1704202691846,-7.250160020868734],[109.1731158719852,-7.249901241832319],[109.17468106070902,-7.250160020868734],[109.17572451985683,-7.2394636968492705],[109.17398542127506,-7.2393774351401845],[109.1725941424113,-7.239204911671351],[109.16902899032084,-7.2393774351401845],[109.16442037908251,-7.241102666188112],[109.16224650585588,-7.24239658514351],[109.16042045234718,-7.243000412719056],[109.15920308333932,-7.242914151685511],[109.15842048897844,-7.243863022136878],[109.15755093968863,-7.243863022136878],[109.15755093968863,-7.245674496541852],[109.15624661575384,-7.246364580113777],[109.15468142703003,-7.245933278005182],[109.15320319323729,-7.246795881810598],[109.15215973408738,-7.246105798898142],[109.15059454536566,-7.245588236021021],[109.14984332790607,-7.2460095356291845],[109.14931870926426,-7.245489106643177],[109.14834441749906,-7.244993459431555],[109.14766990781538,-7.244522594075107],[109.14724521653153,-7.243580861887551],[109.14674557972921,-7.242688692737175],[109.14629590660832,-7.242416085144029],[109.14509677828033,-7.24209391232155],[109.14192308358611,-7.240363802100276],[109.13937879266803,-7.238667338475608],[109.13775211486762,-7.237012245863852],[109.13746014705652,-7.235729544913397],[109.1377938245538,-7.2341571968393055],[109.13683450174312,-7.233039998827621],[109.13566663050051,-7.232171065127929],[109.13441533988555,-7.232046931605893],[109.1336645655166,-7.231922798049709],[109.13249669427404,-7.231426263483726],[109.13019168480741,-7.229539963530016],[109.12942841469231,-7.228498809898085],[109.12904677963479,-7.227646955140372],[109.12847432704854,-7.226795098777657],[109.12627992546538,-7.225848589823201],[109.12599369917217,-7.22499673007016],[109.12542124658592,-7.224239520051725],[109.12294061871194,-7.223671611706209],[109.1217957135371,-7.22253579287478],[109.12065080836447,-7.221967882387858],[109.11950590319185,-7.220548103051527],[109.11901901597798,-7.220045575774478],[109.11854436101521,-7.219624251935883],[109.11831952445465,-7.218459413395195],[109.11776992396688,-7.217567194611874],[109.11734523268552,-7.217145868464939],[109.11717035980405,-7.216600622279842],[109.11687057772275,-7.216278431042852],[109.11692054140173,-7.2155101279374065],[109.11662075932037,-7.21503923184072],[109.11659074416788,-7.2147240089615075],[109.11675229995532,-7.214324317548666],[109.11647941305148,-7.21390504326655],[109.11582631952325,-7.213464365189651],[109.1149759150423,-7.213036143516959],[109.1143614356626,-7.213040824373522],[109.11408427637346,-7.212893068676259],[109.11370068878506,-7.212703078623804],[109.11354052182081,-7.212341556031301],[109.11363578277664,-7.211768861126508],[109.1134218771495,-7.211615982474257],[109.11259231261988,-7.2115328399116265],[109.11179926418015,-7.212137022304759],[109.11147450025925,-7.212709528155415],[109.11128943025813,-7.212909127726363],[109.11101418430809,-7.213001814753447],[109.11067508137592,-7.213295115104245],[109.11053908363499,-7.213393237549695],[109.11033036892667,-7.213482127780594],[109.1100787676803,-7.213729084609227],[109.10989325197193,-7.213838024801319],[109.10948704158875,-7.213708668867596],[109.1094654407159,-7.212945796935557],[109.10916056007235,-7.2126816753388],[109.10874925113143,-7.212597050331482],[109.10843187957252,-7.212330366924647],[109.10812515084086,-7.211926421548469],[109.10669864546334,-7.210907937999322],[109.10643514388065,-7.211080942249273],[109.10623549927803,-7.211317298390979],[109.1058362100728,-7.2113043128819765],[109.10551949434148,-7.211036493449294],[109.10556463482756,-7.210747556716177],[109.10527177392362,-7.21054979483591],[109.10491780828563,-7.210672645544051],[109.10464898529031,-7.211133373247581],[109.10426033891436,-7.211125667164293],[109.10379132207078,-7.210609144695349],[109.10302430598975,-7.210430499284861],[109.10241248370563,-7.210256502586394],[109.10180066142152,-7.210778239472775],[109.10113804054627,-7.210754921909395],[109.10011471546196,-7.210385921769572],[109.09981343680238,-7.209899936916624],[109.09923164629637,-7.20950671665941],[109.0985533465078,-7.209792520460937],[109.09732204717841,-7.208698081054429],[109.09637125969113,-7.20880958360155],[109.09547487661726,-7.2086493981535895],[109.09543576485497,-7.207873568784752],[109.09478887742836,-7.207283269436502],[109.09470826859784,-7.206687509495587],[109.09423026798348,-7.206161323267024],[109.09416255426991,-7.205619160158431],[109.0945623602974,-7.205216145364668],[109.09440114263649,-7.204905896147331],[109.09391507540364,-7.204772417614084],[109.09333550421889,-7.204175110660515],[109.09339171145373,-7.203485161815056],[109.09305052690695,-7.203166276540379],[109.09246166176064,-7.202250208389856],[109.09184942062865,-7.201566055454556],[109.09105017160203,-7.201067435158848],[109.09016910661978,-7.200800732003934],[109.0893815455849,-7.200162962901473],[109.08871086448528,-7.199014976602761],[109.08780642351502,-7.198516357838372],[109.08705353551069,-7.19866581150882],[109.08616039158554,-7.198815265084454],[109.08530914321722,-7.198418420549],[109.08452802281059,-7.198462218710107],[109.08384040635121,-7.198969851510121],[109.0826353569477,-7.198551250601802],[109.0821082111701,-7.198666059238638],[109.0812876794854,-7.198339075207745],[109.07904511201701,-7.200682491882873],[109.07760562398403,-7.201751545276679],[109.07739504510837,-7.201275474256793],[109.07638608757219,-7.201274651475863],[109.07524638902566,-7.201352213930562],[109.0743959214425,-7.2009708860385935],[109.07398456212408,-7.200193516646998],[109.07332151922185,-7.199985317063096],[109.07280721715114,-7.199175327440983],[109.07163998368532,-7.197901749058985],[109.07010801237465,-7.197080906139135],[109.06967983901012,-7.196655289156354],[109.06882308058698,-7.196284062796138],[109.06808607896369,-7.196190067785452],[109.06759720380748,-7.195711692635911],[109.06670913932294,-7.195510549488276],[109.06603789524411,-7.195796735043416],[109.06540657009793,-7.196360151270525],[109.06425109492545,-7.195044510135659],[109.06357273661516,-7.194486107915083],[109.06223558413255,-7.1946029531995634],[109.06129762098016,-7.194086124208241],[109.06038330618782,-7.193292396490563],[109.05912612334697,-7.1927254472697655],[109.05821180855446,-7.191421461378255],[109.05769750648244,-7.190344252815862],[109.05739812968301,-7.189464048074129]]],"type":"Polygon"}},{"type":"Feature","properties":{"nama":"salem","stroke":"#050505","stroke-width":1,"stroke-opacity":1,"fill":"#0467a4","fill-opacity":0.5},"geometry":{"coordinates":[[[108.76315934396962,-7.113936116751944],[108.7604782626446,-7.113385481290777],[108.75901963941402,-7.114430821976043],[108.75650756607581,-7.114109178941774],[108.75537308134045,-7.114993696744733],[108.75172652326694,-7.1150741073694945],[108.7493765191744,-7.11242054931401],[108.74605409959611,-7.1116164377842495],[108.74127305678923,-7.114430821976043],[108.7363299447324,-7.115074107367178],[108.73244028278737,-7.113626713965559],[108.72611958212605,-7.114913286103601],[108.72466095889547,-7.116762727233805],[108.72312130104496,-7.119577079870652],[108.72393164728305,-7.121587321182332],[108.7232023356687,-7.123838780989658],[108.7223919894306,-7.125527368589488],[108.7210954354477,-7.126090229740058],[108.7185833621071,-7.126733498778734],[108.71720577350226,-7.127215949966029],[108.71582818489554,-7.128020034150438],[108.71566611564788,-7.130110646423873],[108.7142885270431,-7.131799210909804],[108.7142885270431,-7.134452656807454],[108.71250576531725,-7.135899984451001],[108.71129024596001,-7.137668934243763],[108.70910231111515,-7.138473000070221],[108.70902127649134,-7.139920314997497],[108.70715748014356,-7.141126407272125],[108.70610403003207,-7.143136553993841],[108.70496954530034,-7.144583854163201],[108.70302471432689,-7.145548718396142],[108.70132298722677,-7.146835200870143],[108.69816263689614,-7.1502122001326],[108.69581263280367,-7.151579073688836],[108.69273331709678,-7.1514182652475995],[108.69386780183208,-7.15407159728754],[108.69443504419883,-7.155358055755784],[108.69386780183208,-7.1581721710113015],[108.69378676720828,-7.1601018400121035],[108.69508332118932,-7.162111903207446],[108.69630395026621,-7.163692762518025],[108.6970031455412,-7.165210310539891],[108.69875113372836,-7.166511061965821],[108.70097981867025,-7.1671180780268315],[108.70290260567617,-7.165990761840362],[108.70483316928909,-7.1638228382626465],[108.705794562792,-7.163996272528365],[108.70697445481949,-7.164516574930744],[108.70819804655054,-7.16560053635925],[108.70837284536924,-7.167074719765537],[108.70924683945918,-7.168635614641545],[108.71029563237357,-7.169632850236766],[108.71239321819763,-7.17028322010016],[108.71387900815677,-7.17136716780972],[108.71553959693642,-7.172667901653384],[108.71641359103012,-7.174705710539001],[108.7175934830575,-7.176396651411764],[108.71781198157987,-7.177827442627375],[108.71838007774176,-7.178477800783995],[108.71966959851977,-7.180199873626023],[108.72057362935954,-7.180552243365796],[108.72147766019924,-7.181128847806846],[108.72209110969834,-7.182634422623281],[108.72199424925202,-7.184652525728183],[108.72160680746344,-7.18721518342349],[108.72105793159574,-7.18974579371357],[108.72192967561853,-7.192052160428503],[108.72364087685321,-7.193653797090363],[108.72599781440039,-7.194294450172336],[108.72964622457772,-7.194070221697245],[108.7306471158654,-7.1944866459205485],[108.73251975117574,-7.19509526525394],[108.73490897553887,-7.194774939391166],[108.73623273498356,-7.195191362969425],[108.73968742426416,-7.197081280558251],[108.7424640904162,-7.197946155473929],[108.74472416751809,-7.1975297344236395],[108.74879230629728,-7.19416631963071],[108.74859858540299,-7.19320533939748],[108.74937346897997,-7.191027110003375],[108.74956718987414,-7.189489530023735],[108.74905060082284,-7.189009035211811],[108.7499546316626,-7.187183150293777],[108.75027771006319,-7.190483593958845],[108.75095720487963,-7.1917355869859705],[108.75149109366515,-7.19250604251701],[108.75153962900805,-7.193758029967512],[108.75207351779346,-7.194287715925853],[108.75251033588864,-7.195395239114134],[108.75547099187662,-7.194817401266121],[108.75809190045663,-7.196839830516382],[108.76071280903665,-7.19722505411336],[108.75993624352981,-7.198188111675819],[108.76066427369148,-7.198958556253004],[108.76158644522928,-7.198958556253004],[108.76289689951926,-7.199440083449204],[108.76454710121635,-7.19919931991501],[108.76556634344212,-7.199006708995626],[108.76692533307511,-7.199343778050888],[108.76906088821471,-7.1987177924632135],[108.77080816059993,-7.198669639689939],[108.77231275626605,-7.198428875746785],[108.77386588727518,-7.198428875746785],[108.77488512950089,-7.199295625344007],[108.77477257335192,-7.201191957209815],[108.77542127944304,-7.202765172628929],[108.77679077007991,-7.203694797356476],[108.77794402535483,-7.2042668731637605],[108.77866480990048,-7.2054110226132195],[108.77996222208287,-7.20555404109119],[108.7812596342668,-7.20684120536275],[108.78214031629159,-7.208240757379102],[108.78296288568384,-7.208673773088208],[108.78348328672854,-7.208940244088865],[108.78506127699274,-7.2095398032654145],[108.78702537125577,-7.209473185618407],[108.78799902482154,-7.2100727440894445],[108.78934199526009,-7.21018932481158],[108.78999669334843,-7.212870673127497],[108.79028207456588,-7.213470227100984],[108.79132493917791,-7.213565874798135],[108.79295615233866,-7.213415335021892],[108.79348724499528,-7.213038985364406],[108.79454943030811,-7.212361555192572],[108.79712902321319,-7.2115335836051315],[108.79917752346046,-7.210630340147716],[108.79993622725749,-7.2098023653950065],[108.8008846070037,-7.208598035780383],[108.80160537561011,-7.207770057313681],[108.80209853307775,-7.206829170855443],[108.80259169054375,-7.206076460281395],[108.80426083889517,-7.2062646380419295],[108.80524715382904,-7.205587197738396],[108.806195533574,-7.205474290922652],[108.80727543841414,-7.205888282442729],[108.80841349410878,-7.205436655311189],[108.80966535537186,-7.204269949804058],[108.81031025359692,-7.204157042660199],[108.810613735115,-7.2035548707513755],[108.81258636498455,-7.203253784496056],[108.81584787683352,-7.203893592545597],[108.81936752796452,-7.203825818711891],[108.82059492058738,-7.204019471018924],[108.8218430210959,-7.20423366772242],[108.82411320206921,-7.20305695323767],[108.82601064116346,-7.201818605681126],[108.82710118985918,-7.20221219253942],[108.82824271660894,-7.202572062089871],[108.83120746996005,-7.2026866174615165],[108.8344101209048,-7.202969758693499],[108.83633887803066,-7.204601058429624],[108.83794477414091,-7.205541158213663],[108.83874541549,-7.205149647226506],[108.83932120549821,-7.205517902733071],[108.84110347614848,-7.205818724240473],[108.84371642708373,-7.206218065521199],[108.84487421655837,-7.2063700909520705],[108.8462359182526,-7.206184947227612],[108.84749096305933,-7.206164323140015],[108.84807190644847,-7.206210534221341],[108.84860187178344,-7.205750991316918],[108.84967150573654,-7.206038975592069],[108.85045226404176,-7.205888639627723],[108.85157197084044,-7.205318232182961],[108.85345514152652,-7.205410654591233],[108.85540628295064,-7.203958852334694],[108.85891833751634,-7.203281343022482],[108.8595036799436,-7.202410258134805],[108.86116215015636,-7.2025070454271685],[108.86506443300703,-7.201055233870761],[108.8674058027159,-7.201152021452415],[108.86867404464078,-7.199022689883179],[108.87179587092169,-7.1982483850166545],[108.87491769720265,-7.196506194233947],[108.8764786103419,-7.195538307574893],[108.87960043662287,-7.193796106387865],[108.88184424926055,-7.190795633115982],[108.88369783361577,-7.188472672450814],[108.88350271947337,-7.184117089189002],[108.88428317604308,-7.182665218827111],[108.88701477403913,-7.183536341600686],[108.88847813010722,-7.185859327503181],[108.89169751345935,-7.185278582140867],[108.89316086952743,-7.186343281404774],[108.89561769814054,-7.185436641580637],[108.89190157851709,-7.179277055705697],[108.892477970029,-7.177535239751563],[108.89472178266902,-7.176567312683346],[108.89442911145312,-7.172501996519443],[108.8928681983138,-7.171146883064807],[108.89111217103215,-7.166500749179448],[108.88477402455067,-7.160167884328914],[108.88233203462107,-7.157595526847956],[108.88047845026585,-7.158563494219749],[108.8791157144205,-7.16227682297648],[108.87612985540898,-7.165007673333122],[108.86760091685971,-7.162435343168184],[108.86486931886282,-7.161080199774943],[108.86180643822024,-7.158175797282439],[108.86209859518914,-7.154465319300556],[108.8601703591944,-7.15226220872853],[108.86047327724003,-7.149189830366012],[108.86119192714528,-7.146647122755468],[108.86055770479655,-7.144851701116636],[108.85945030746348,-7.143291029670877],[108.8590643696819,-7.142258584625523],[108.85863189895457,-7.13560725331665],[108.85661370222482,-7.133604683018717],[108.85351432867594,-7.131959708005681],[108.84998248439786,-7.130529290148019],[108.84839675839731,-7.130457769137919],[108.84695518930414,-7.1283836549851],[108.84580193403099,-7.1267386612220065],[108.84536946330354,-7.125522792471102],[108.843567501942,-7.124020832502424],[108.84255840357628,-7.124092354517245],[108.84133306984864,-7.123377133866953],[108.83981942230088,-7.121231465220234],[108.83801746093656,-7.120373194951199],[108.83412522438795,-7.120587762669004],[108.8323232630213,-7.1200871045046625],[108.82843102647212,-7.118942740933221],[108.82504333910549,-7.11822751225111],[108.82280890701372,-7.118656649594556],[108.82057447491974,-7.119586445792933],[108.81754717982597,-7.119514923075357],[108.81459196318787,-7.118728172445898],[108.81170882500328,-7.117583805484742],[108.8102672559101,-7.116510958866584],[108.80817698072752,-7.1156526797668675],[108.80687956854348,-7.114508305136553],[108.80594254863405,-7.114651352121285],[108.8039964303589,-7.114293734575881],[108.80183407671996,-7.113506974994692],[108.79898233591274,-7.11343545132965],[108.79797323754866,-7.112791737842571],[108.79631543309182,-7.11093211603162],[108.79408100100011,-7.110073826503111],[108.79083747054261,-7.109644681137425],[108.78881927381286,-7.10900096233641],[108.78622444944659,-7.109287059692207],[108.78507119417338,-7.109930778092419],[108.7832692328073,-7.110288399035582],[108.78110687916848,-7.109358584003402],[108.7798094669862,-7.109930778092419],[108.77764711334726,-7.110789067888291],[108.77671009343783,-7.109930778092419],[108.77548475970843,-7.11107516413135],[108.77317824916207,-7.111218212185591],[108.77051134634121,-7.111718880024696],[108.768565228066,-7.112505642669788],[108.76604248215426,-7.113650022291424],[108.76315934396962,-7.113936116751944]]],"type":"Polygon"}},{"type":"Feature","properties":{"Nama":"Bumiayu","stroke":"#000000","stroke-width":1,"stroke-opacity":0.8,"fill":"#049a1d","fill-opacity":0.5},"geometry":{"coordinates":[[[108.96979932492371,-7.192360700930678],[108.96747237096469,-7.192258094565872],[108.96690355999613,-7.190924209712421],[108.96700698017202,-7.189590320940823],[108.96420843017609,-7.189457646916281],[108.96197194357819,-7.188823674567885],[108.96101344932254,-7.18988029465612],[108.95888346208648,-7.189668970835385],[108.95781846846779,-7.187344402316924],[108.95579498059465,-7.187767052022977],[108.95483648633774,-7.188718012424005],[108.95206750293124,-7.187767052022977],[108.94951151824813,-7.187767052022977],[108.94738153101207,-7.188612350255497],[108.94525154377595,-7.190091618378517],[108.94301505717806,-7.191042573912654],[108.94195006355943,-7.192310511528106],[108.9406720712185,-7.194740715392044],[108.93939407887638,-7.196431284319061],[108.93779658844898,-7.1987558063084975],[108.93556010185114,-7.200446360273986],[108.93215212227409,-7.203193497025552],[108.92863764333413,-7.206046275262594],[108.92853114397275,-7.208053775108681],[108.93204562291282,-7.208899035541236],[108.9326846190832,-7.210061266058787],[108.9294896382284,-7.2118574346294935],[108.92608165865147,-7.21375925240838],[108.92522966375623,-7.2146045021893315],[108.92672065482185,-7.217140242061461],[108.92629465737491,-7.220309896916703],[108.92853114397275,-7.220943825221724],[108.93172612482624,-7.220838170565969],[108.93289761780835,-7.2210811750648105],[108.93417561014928,-7.224039494505718],[108.93502760504447,-7.22657518147372],[108.93971357696358,-7.232703032889873],[108.93939407887842,-7.236083880829199],[108.9424825603702,-7.238408199096341],[108.94642303675715,-7.239781654260042],[108.94855302399321,-7.240943805363699],[108.95036351314405,-7.238302548524686],[108.95291949782711,-7.2376686445824845],[108.9537714927211,-7.239887304484],[108.95824446591678,-7.241260755144623],[108.9585639640054,-7.243268098584849],[108.95973545698456,-7.244852837091997],[108.95920296017584,-7.246754515944815],[108.95696647357806,-7.246860164534581],[108.9537714927232,-7.245592379821247],[108.95281299846755,-7.245592379821247],[108.95366499336143,-7.247599703969328],[108.95654047613107,-7.248127945679471],[108.95771196911022,-7.249607019173624],[108.95778862439738,-7.250249772889546],[108.95698465245135,-7.2513796244916335],[108.95671666180277,-7.252110703429594],[108.9584586010223,-7.252815105723556],[108.95881592188721,-7.2530809518996335],[108.95850326612936,-7.25421079639689],[108.95783328950654,-7.255008331982239],[108.9578109569531,-7.255451406696167],[108.9584586010223,-7.255562175305968],[108.95910624508934,-7.255695097602384],[108.95988788448187,-7.255761558736353],[108.96024520534678,-7.255850173565747],[108.9603122030095,-7.256271093767424],[108.9606471913209,-7.256736320899577],[108.96073652153711,-7.25717939391312],[108.96073652153069,-7.258091634581248],[108.96020054023336,-7.258844856173653],[108.9595305636106,-7.259996839699895],[108.95912857763653,-7.260860825407974],[108.95935190318244,-7.262234337730547],[108.95955289616842,-7.262810325521571],[108.96015587512841,-7.263319852566241],[108.96095984707449,-7.263452772571],[108.96167448880641,-7.263319852566241],[108.96180848412962,-7.263452772571],[108.96185314924043,-7.265047809552115],[108.96180848413127,-7.265690253403534],[108.96283578161518,-7.26626623676556],[108.96330476524986,-7.2663326963372015],[108.96330476525242,-7.26854800974526],[108.9633589882024,-7.269212601641712],[108.96380563928352,-7.269500591157225],[108.96666420620483,-7.269190448594969],[108.96746817815085,-7.26956705024935],[108.96684286663486,-7.271693736019316],[108.96711085727975,-7.272402629038879],[108.96778083390251,-7.272513393472536],[108.96963443588965,-7.273288743739485],[108.96956743822699,-7.273820411719669],[108.9692771150307,-7.274736533000336],[108.96952277312579,-7.275002366211709],[108.9699024265442,-7.274913755158735],[108.97021508230205,-7.274271324501072],[108.97063940082973,-7.274204866105308],[108.9708850589227,-7.274448546844198],[108.97090739147842,-7.275002366211709],[108.9707510635995,-7.2752681992666055],[108.96999175676046,-7.275489726691262],[108.96965676844917,-7.2758220176226445],[108.96972376611183,-7.276242919117024],[108.97023741485566,-7.27650875143604],[108.97063940082973,-7.277261942152421],[108.9708850589206,-7.277948673761543],[108.97133812353997,-7.278047078639972],[108.97178901504253,-7.2776637140740945],[108.9719178411861,-7.277488005204916],[108.9722077000099,-7.277615793481502],[108.97232042288584,-7.278079025673108],[108.9725941784406,-7.27830265483675],[108.97306117321216,-7.278638098371658],[108.97347985817788,-7.278941594687794],[108.97335103203437,-7.279197170373379],[108.97264248824473,-7.279197170373379],[108.97195004772277,-7.2791652234199375],[108.9715474660245,-7.2793888520420325],[108.97141863988088,-7.279756241678328],[108.97157967255805,-7.280411152892498],[108.97203056406056,-7.280459073186492],[108.97302896667395,-7.280219471660786],[108.97376971700027,-7.280219471660786],[108.9739146464114,-7.280331285721417],[108.97397905948316,-7.280570887188915],[108.97326511610197,-7.282763236329046],[108.97330602756011,-7.28329079409599],[108.97387878798708,-7.283453119437482],[108.97473792862866,-7.283371956774019],[108.97522886613751,-7.283453119437482],[108.9750243088431,-7.284183582746991],[108.97445154841415,-7.285401018951703],[108.9746561057105,-7.2857662491679775],[108.97588344948275,-7.285725668047576],[108.97625165261542,-7.286090897999173],[108.97608800677517,-7.2871783034874085],[108.976538032826,-7.288111665302665],[108.97735626200756,-7.289085605992199],[108.97776537659826,-7.28997838309823],[108.97760173076193,-7.290952319729584],[108.97694714741675,-7.291845093113352],[108.97694714741675,-7.292332059663366],[108.97727443908934,-7.2925349622362035],[108.97792902243452,-7.2924538012180875],[108.9785017828616,-7.291966834800519],[108.9787881630761,-7.2921697375388845],[108.97874725161603,-7.293305991175231],[108.97788811097644,-7.294482822258303],[108.976538032826,-7.295010366221675],[108.9761289182336,-7.2956596502477],[108.97604709531544,-7.296227772997312],[108.97563798072468,-7.296795895024658],[108.97706988179334,-7.298216196938043],[108.97825631410745,-7.297161115947063],[108.97882907453447,-7.297161115947063],[108.97891089745264,-7.297769816822907],[108.97792902243486,-7.298500256779462],[108.97768355368038,-7.299677074201796],[108.97788811097672,-7.299920553281666],[108.97870634015828,-7.299393015107697],[108.98005641830872,-7.299839393603079],[108.98030188706315,-7.300164032229006],[108.98009732976675,-7.3010162075019025],[108.97964730371797,-7.301259685852784],[108.97870634015828,-7.300935048022211],[108.97751990784406,-7.3023147571745],[108.97727443909258,-7.303653882581614],[108.97837904848865,-7.30466836885023],[108.9786654286973,-7.304911845209361],[108.98496579339746,-7.306048066478496],[108.9857840225809,-7.306048066478496],[108.98688863197691,-7.306494438329125],[108.98770686115836,-7.307265443203775],[108.9898751684903,-7.307265443203775],[108.99061157475364,-7.3073466015340784],[108.99106160080447,-7.308036446746939],[108.9922329408804,-7.307955288541876],[108.99472853988499,-7.307265443203775],[108.99800145661288,-7.30657559679959],[108.99922880038514,-7.306819072122295],[108.99947426913951,-7.308158184026851],[109.00045614415933,-7.309213239064164],[109.0012334618807,-7.309375555002461],[109.0025017171144,-7.30633212134417],[109.00331994629528,-7.30556111486014],[109.00651104010507,-7.304668368847544],[109.0071247119921,-7.3042625746164305],[109.00741109220468,-7.303126348808391],[109.00692015469576,-7.3025988144163705],[109.00581554529947,-7.301543743765109],[109.00442455569089,-7.299595914482865],[109.00397452964012,-7.29874373650388],[109.00254262857146,-7.2941987598720175],[109.00241989419521,-7.29334657161435],[109.0026653629497,-7.292210318080919],[109.00479275882157,-7.28867979763433],[109.00520187341237,-7.287502951301931],[109.0049154931998,-7.286163777576178],[109.00487458174166,-7.285189830534108],[109.00528369633241,-7.28336367412696],[109.00512005049615,-7.282552046668599],[109.00475184736518,-7.281294021207287],[109.00372906088728,-7.280522971598543],[109.00282900878767,-7.279508430619018],[109.00274718586951,-7.2782909784145176],[109.00364723796912,-7.277398178032001],[109.00536551925029,-7.276261884065605],[109.00610192551562,-7.275369079645614],[109.0070838005334,-7.274638601979873],[109.00679569450404,-7.273859715862372],[109.006952724303,-7.273132807303895],[109.00742381369997,-7.2734443396873445],[109.00820896269613,-7.273392417638476],[109.0087323953594,-7.272561664039415],[109.0096745741534,-7.271107841540925],[109.01077378274755,-7.271107841540925],[109.01114018561191,-7.2705886180796995],[109.0114542452099,-7.269134789193544],[109.01333860279902,-7.267992491768425],[109.01401906526257,-7.268615563451334],[109.01459484119215,-7.269082866646329],[109.01569404978505,-7.269342479322347],[109.0163745122486,-7.26949824685596],[109.01674091511296,-7.269238634269968],[109.01904401883269,-7.269809781761083],[109.0211900927535,-7.272250131043421],[109.02234164461271,-7.2727174304563675],[109.02312679360892,-7.272769352583325],[109.02349319647243,-7.273080885219002],[109.02506349446361,-7.27370394984176],[109.02726191165073,-7.274794310851874],[109.02762831451503,-7.275469294910835],[109.02820409044585,-7.27593659097235],[109.032600924816,-7.276196199685131],[109.03464231220408,-7.2760404344755045],[109.03563683426438,-7.275417373096175],[109.0372071322555,-7.272457819731471],[109.0378352514515,-7.27115976385403],[109.0371547889892,-7.2706924628200085],[109.03657901305951,-7.269861704224269],[109.03605558039499,-7.269394401839548],[109.03595089386238,-7.268719408647755],[109.0378352514515,-7.267784801014216],[109.03804462451677,-7.266642500156507],[109.03940554944268,-7.265084812487558],[109.03903914657997,-7.264357889729084],[109.03940554944552,-7.261709804020555],[109.03930086291285,-7.260619411254794],[109.03951023597824,-7.258282846423327],[109.03992898210885,-7.257400140995898],[109.04128990703344,-7.255011635273078],[109.04149928009997,-7.253817377657214],[109.04165630989905,-7.252934663470697],[109.04066178783751,-7.252297153522903],[109.03956257924449,-7.250843265500649],[109.03928072978357,-7.2510946097043245],[109.03868712110898,-7.25056095409127],[109.03775960755405,-7.2507265714184825],[109.0367764431872,-7.25019291536934],[109.03597878153028,-7.25022971925506],[109.03493996634796,-7.250156111480592],[109.03462461174001,-7.250027297845918],[109.03456896092632,-7.249144003361252],[109.0345504106557,-7.247947872651878],[109.03475446363808,-7.246806945015365],[109.03505126797535,-7.246199675901664],[109.03503271770467,-7.245279569624401],[109.03699904644185,-7.24428585273408],[109.0373144010515,-7.243328938102735],[109.03724019996719,-7.242813675536638],[109.03686919454555,-7.242353619176768],[109.03688774481623,-7.241948769192106],[109.0366465912926,-7.241194275068494],[109.0375741048494,-7.239666880659783],[109.03922507897482,-7.239114809119187],[109.04013404225702,-7.239004394730074],[109.042582678043,-7.239243625871893],[109.04354729214066,-7.239593271159748],[109.04510551491154,-7.239482856887747],[109.04725734635872,-7.238691553813652],[109.04740574852883,-7.237771432214245],[109.04729281313593,-7.236771936026528],[109.04710430018099,-7.235977137818878],[109.04663301779368,-7.235042079311654],[109.04616173540632,-7.234574549330489],[109.04663301779368,-7.233639487917387],[109.046915787226,-7.23219013889819],[109.04682153074862,-7.230179743846776],[109.04635024836125,-7.230553771510529],[109.04578470949644,-7.230320004256967],[109.04559619654145,-7.229525194689728],[109.04554906830327,-7.228403108217378],[109.04474788824587,-7.226673219438339],[109.04342829755905,-7.225036832065101],[109.04281563045657,-7.225597879831696],[109.04281563045657,-7.226112173006911],[109.04168455272469,-7.226579711748144],[109.04097762914483,-7.227701802754368],[109.03984655141511,-7.227935571363005],[109.03918675607059,-7.228356354553654],[109.03852696072829,-7.227935571363005],[109.03786716538599,-7.228449861876143],[109.03716024180386,-7.227935571363005],[109.03668895941655,-7.2280290787725505],[109.03617054879152,-7.2280290787725505],[109.0340969062849,-7.2276550490181535],[109.03296582855518,-7.227374526497982],[109.03155198139086,-7.2267667271091796],[109.03070367309368,-7.226673219438339],[109.03070367309368,-7.2262056807938535],[109.02858290234946,-7.224382275457174],[109.02628373603358,-7.222512108492509],[109.02355029818693,-7.2213900046030375],[109.02274911812725,-7.220875706055267],[109.02138239920282,-7.219800352658538],[109.02029844971082,-7.219379561502976],[109.01841332016056,-7.219145788468097],[109.01657531884882,-7.219940616288596],[109.01487870225424,-7.221296495818393],[109.01473731753993,-7.221623776474814],[109.0150200869723,-7.222699125536266],[109.0150200869723,-7.224242013199529],[109.0139361374803,-7.226626465591622],[109.01233377736105,-7.229010905400472],[109.01044864780937,-7.230834292057267],[109.00978885246707,-7.231068059044617],[109.00875203121484,-7.230740785228477],[109.00762095348296,-7.231582345990802],[109.00714967109559,-7.231862865896389],[109.00634849103602,-7.234387537203887],[109.003285155517,-7.232797930990614],[109.0028138731297,-7.232517411665995],[109.00191843659263,-7.233265462810849],[109.00078735886723,-7.236164149290417],[108.99984479409255,-7.238081012379084],[108.99814817749518,-7.238595291334292],[108.99725274095806,-7.238081012379411],[108.99593315027352,-7.2379407543797925],[108.99489632901907,-7.238829054301746],[108.99348248185697,-7.2390628171480955],[108.99239853236497,-7.240371886849786],[108.9913617111128,-7.240652401291271],[108.99008924866581,-7.240699153681206],[108.98947658156334,-7.240371886849786],[108.98853401678639,-7.240558896496822],[108.98773283672898,-7.240278381997214],[108.98773283672898,-7.238922559454863],[108.98829837559384,-7.237753743647232],[108.98886391445865,-7.238221270334364],[108.989523709801,-7.237379721949537],[108.99027776162075,-7.2360238906951935],[108.99093755696305,-7.235322597069114],[108.99037201809824,-7.234387537205805],[108.99046627457568,-7.233405722263342],[108.99027776162075,-7.2316290993212675],[108.990607659293,-7.230740785229273],[108.98990073571082,-7.229665455305096],[108.98947658156334,-7.228356354550797],[108.98914603247107,-7.226433715554251],[108.98909890423346,-7.223955753912023],[108.98900464775602,-7.222366110988347],[108.98895751951619,-7.220589444635948],[108.9882034676964,-7.220262163230927],[108.9874494158766,-7.219186808375355],[108.98735515939916,-7.218158205685327],[108.98716664644422,-7.217363374732898],[108.98622408166943,-7.2170828458269085],[108.98532864513243,-7.217269865117217],[108.98457459331257,-7.216475032603029],[108.98386766973044,-7.216147748221218],[108.98330213087013,-7.214604832948723],[108.98339638734757,-7.213622975035733],[108.98287797672037,-7.212921646650003],[108.98349064382501,-7.2119865404470715],[108.98273659200527,-7.211893029720585],[108.9830193614377,-7.211425475797199],[108.9823595660954,-7.21011632224652],[108.98217105314046,-7.208947431948673],[108.98231243785551,-7.20819934057576],[108.9824538225729,-7.207217468772839],[108.98174689899076,-7.206282350792861],[108.9811813601259,-7.205721279077409],[108.9805215647836,-7.205627767057493],[108.98075720597467,-7.204786158012425],[108.98038018006469,-7.204084815944441],[108.98038018006469,-7.203289960290135],[108.98056869301968,-7.2028223974894985],[108.98009741063237,-7.202214565126681],[108.97934335881251,-7.202308077851853],[108.97858930699283,-7.202167808757366],[108.97811802460546,-7.201092410933356],[108.9775524857406,-7.200204036893098],[108.97712833159079,-7.199409174435644],[108.97675130568098,-7.199222147772616],[108.97642140800872,-7.199596201021507],[108.97590299738374,-7.1988013374988356],[108.97487058578992,-7.198908993780833],[108.97483401342333,-7.198703384102231],[108.97506563841768,-7.198292164467915],[108.97488277658039,-7.197953512723757],[108.97441952659278,-7.197711618464879],[108.97350039526992,-7.1973729662874035],[108.97345163211452,-7.196477955743745],[108.97311029001781,-7.196030449810436],[108.97325657948625,-7.195655512066594],[108.9726226584529,-7.19567970160719],[108.97231380970032,-7.195426441697734],[108.97130992078371,-7.194900783964258],[108.97139357819395,-7.194015464301259],[108.97142146399659,-7.193683468982428],[108.97108683435806,-7.193213141864462],[108.97030603186835,-7.192742814259205],[108.96979932492371,-7.192360700930678]]],"type":"Polygon"}}]}